{
  "type": "FeatureCollection",
  "features": [
    {
      "type": "Feature",
      "properties": {
        "norad_id": 15362,
        "name": "NOVA 3",
        "group": "nnss",
        "lat": 13.81096709988827,
        "lon": 80.43338820626764,
        "alt_km": 1152.8249660537767,
        "timestamp": "2025-12-06T16:45:42.990516+00:00",
        "meta_object_name": "NOVA 3",
        "meta_object_id": "1984-110A",
        "meta_epoch": "2025-12-06T05:57:58.790304",
        "meta_mean_motion": 13.23043415,
        "meta_eccentricity": 0.00310279,
        "meta_inclination": 90.1224,
        "meta_ra_of_asc_node": 80.4582,
        "meta_arg_of_pericenter": 350.1781,
        "meta_mean_anomaly": 42.3719,
        "meta_ephemeris_type": 0,
        "meta_classification_type": "U",
        "meta_norad_cat_id": 15362,
        "meta_element_set_no": 999,
        "meta_rev_at_epoch": 98613,
        "meta_bstar": 0.00028227425,
        "meta_mean_motion_dot": 1.27e-06,
        "meta_mean_motion_ddot": 0,
        "tle_line1": "1 15362U 84110A   25340.24859711  .00000127  00000+0  28227-3 0  9995",
        "tle_line2": "2 15362  90.1224  80.4582 0031027 350.1781  42.3719 13.23043415986131"
      },
      "geometry": {
        "type": "Point",
        "coordinates": [
          80.43338820626764,
          13.81096709988827
        ]
      }
    },
    {
      "type": "Feature",
      "properties": {
        "norad_id": 15935,
        "name": "OSCAR 30",
        "group": "nnss",
        "lat": 6.569504167775848,
        "lon": -80.23268912924112,
        "alt_km": 1085.9547400846686,
        "timestamp": "2025-12-06T16:45:42.990526+00:00",
        "meta_object_name": "OSCAR 30",
        "meta_object_id": "1985-066A",
        "meta_epoch": "2025-12-06T02:22:56.966880",
        "meta_mean_motion": 13.36076545,
        "meta_eccentricity": 0.01693734,
        "meta_inclination": 90.1648,
        "meta_ra_of_asc_node": 99.7386,
        "meta_arg_of_pericenter": 102.4366,
        "meta_mean_anomaly": 68.9207,
        "meta_ephemeris_type": 0,
        "meta_classification_type": "U",
        "meta_norad_cat_id": 15935,
        "meta_element_set_no": 999,
        "meta_rev_at_epoch": 96364,
        "meta_bstar": 0.00024126207,
        "meta_mean_motion_dot": 1.44e-06,
        "meta_mean_motion_ddot": 0,
        "tle_line1": "1 15935U 85066A   25340.09927045  .00000144  00000+0  24126-3 0  9994",
        "tle_line2": "2 15935  90.1648  99.7386 0169373 102.4366  68.9207 13.36076545963646"
      },
      "geometry": {
        "type": "Point",
        "coordinates": [
          -80.23268912924112,
          6.569504167775848
        ]
      }
    },
    {
      "type": "Feature",
      "properties": {
        "norad_id": 15936,
        "name": "OSCAR 24",
        "group": "nnss",
        "lat": -71.11088015705204,
        "lon": -88.32434105735146,
        "alt_km": 1234.3808925164622,
        "timestamp": "2025-12-06T16:45:42.990537+00:00",
        "meta_object_name": "OSCAR 24",
        "meta_object_id": "1985-066B",
        "meta_epoch": "2025-12-06T01:59:27.678336",
        "meta_mean_motion": 13.35934256,
        "meta_eccentricity": 0.01703885,
        "meta_inclination": 90.1788,
        "meta_ra_of_asc_node": 92.1877,
        "meta_arg_of_pericenter": 108.9205,
        "meta_mean_anomaly": 62.7783,
        "meta_ephemeris_type": 0,
        "meta_classification_type": "U",
        "meta_norad_cat_id": 15936,
        "meta_element_set_no": 999,
        "meta_rev_at_epoch": 96554,
        "meta_bstar": 0.0002288096,
        "meta_mean_motion_dot": 1.37e-06,
        "meta_mean_motion_ddot": 0,
        "tle_line1": "1 15936U 85066B   25340.08295924  .00000137  00000+0  22881-3 0  9996",
        "tle_line2": "2 15936  90.1788  92.1877 0170388 108.9205  62.7783 13.35934256965548"
      },
      "geometry": {
        "type": "Point",
        "coordinates": [
          -88.32434105735146,
          -71.11088015705204
        ]
      }
    },
    {
      "type": "Feature",
      "properties": {
        "norad_id": 17070,
        "name": "POLAR BEAR",
        "group": "nnss",
        "lat": -47.96857366325862,
        "lon": -176.40892405843152,
        "alt_km": 1017.4268278519148,
        "timestamp": "2025-12-06T16:45:42.990548+00:00",
        "meta_object_name": "POLAR BEAR",
        "meta_object_id": "1986-088A",
        "meta_epoch": "2025-12-06T07:21:28.759968",
        "meta_mean_motion": 13.75248882,
        "meta_eccentricity": 0.00405397,
        "meta_inclination": 89.6179,
        "meta_ra_of_asc_node": 184.031,
        "meta_arg_of_pericenter": 137.9418,
        "meta_mean_anomaly": 35.4001,
        "meta_ephemeris_type": 0,
        "meta_classification_type": "U",
        "meta_norad_cat_id": 17070,
        "meta_element_set_no": 999,
        "meta_rev_at_epoch": 95890,
        "meta_bstar": 0.00017457342,
        "meta_mean_motion_dot": 1.8e-06,
        "meta_mean_motion_ddot": 0,
        "tle_line1": "1 17070U 86088A   25340.30658287  .00000180  00000+0  17457-3 0  9993",
        "tle_line2": "2 17070  89.6179 184.0310 0040539 137.9418  35.4001 13.75248882958900"
      },
      "geometry": {
        "type": "Point",
        "coordinates": [
          -176.40892405843152,
          -47.96857366325862
        ]
      }
    },
    {
      "type": "Feature",
      "properties": {
        "norad_id": 18361,
        "name": "OSCAR 27",
        "group": "nnss",
        "lat": 32.53491231477284,
        "lon": -100.71487622492607,
        "alt_km": 1093.6635806431623,
        "timestamp": "2025-12-06T16:45:42.990558+00:00",
        "meta_object_name": "OSCAR 27",
        "meta_object_id": "1987-080A",
        "meta_epoch": "2025-12-06T07:05:33.751392",
        "meta_mean_motion": 13.44904671,
        "meta_eccentricity": 0.01025132,
        "meta_inclination": 90.3742,
        "meta_ra_of_asc_node": 79.0312,
        "meta_arg_of_pericenter": 242.5023,
        "meta_mean_anomaly": 116.5676,
        "meta_ephemeris_type": 0,
        "meta_classification_type": "U",
        "meta_norad_cat_id": 18361,
        "meta_element_set_no": 999,
        "meta_rev_at_epoch": 87470,
        "meta_bstar": 0.000299663,
        "meta_mean_motion_dot": 1.89e-06,
        "meta_mean_motion_ddot": 0,
        "tle_line1": "1 18361U 87080A   25340.29552953  .00000189  00000+0  29966-3 0  9998",
        "tle_line2": "2 18361  90.3742  79.0312 0102513 242.5023 116.5676 13.44904671874705"
      },
      "geometry": {
        "type": "Point",
        "coordinates": [
          -100.71487622492607,
          32.53491231477284
        ]
      }
    },
    {
      "type": "Feature",
      "properties": {
        "norad_id": 18362,
        "name": "OSCAR 29",
        "group": "nnss",
        "lat": 10.382206152672488,
        "lon": -100.42654101124256,
        "alt_km": 1100.5697738539402,
        "timestamp": "2025-12-06T16:45:42.990569+00:00",
        "meta_object_name": "OSCAR 29",
        "meta_object_id": "1987-080B",
        "meta_epoch": "2025-12-06T05:16:35.442624",
        "meta_mean_motion": 13.44446542,
        "meta_eccentricity": 0.01037263,
        "meta_inclination": 90.3754,
        "meta_ra_of_asc_node": 79.4867,
        "meta_arg_of_pericenter": 266.136,
        "meta_mean_anomaly": 109.6931,
        "meta_ephemeris_type": 0,
        "meta_classification_type": "U",
        "meta_norad_cat_id": 18362,
        "meta_element_set_no": 999,
        "meta_rev_at_epoch": 87422,
        "meta_bstar": 0.00025097464,
        "meta_mean_motion_dot": 1.58e-06,
        "meta_mean_motion_ddot": 0,
        "tle_line1": "1 18362U 87080B   25340.21985466  .00000158  00000+0  25097-3 0  9997",
        "tle_line2": "2 18362  90.3754  79.4867 0103726 266.1360 109.6931 13.44446542874223"
      },
      "geometry": {
        "type": "Point",
        "coordinates": [
          -100.42654101124256,
          10.382206152672488
        ]
      }
    },
    {
      "type": "Feature",
      "properties": {
        "norad_id": 19070,
        "name": "OSCAR 23",
        "group": "nnss",
        "lat": -50.14936516752702,
        "lon": 16.591383421738538,
        "alt_km": 1215.8395918288552,
        "timestamp": "2025-12-06T16:45:42.990579+00:00",
        "meta_object_name": "OSCAR 23",
        "meta_object_id": "1988-033A",
        "meta_epoch": "2025-12-06T00:47:23.463744",
        "meta_mean_motion": 13.27785596,
        "meta_eccentricity": 0.01889685,
        "meta_inclination": 90.3219,
        "meta_ra_of_asc_node": 16.1847,
        "meta_arg_of_pericenter": 198.5931,
        "meta_mean_anomaly": 170.0577,
        "meta_ephemeris_type": 0,
        "meta_classification_type": "U",
        "meta_norad_cat_id": 19070,
        "meta_element_set_no": 999,
        "meta_rev_at_epoch": 82164,
        "meta_bstar": 0.0002557335,
        "meta_mean_motion_dot": 1.35e-06,
        "meta_mean_motion_ddot": 0,
        "tle_line1": "1 19070U 88033A   25340.03291046  .00000135  00000+0  25573-3 0  9991",
        "tle_line2": "2 19070  90.3219  16.1847 0188968 198.5931 170.0577 13.27785596821647"
      },
      "geometry": {
        "type": "Point",
        "coordinates": [
          16.591383421738538,
          -50.14936516752702
        ]
      }
    }
  ]
}